OBJECT_NAME,OBJECT_ID,EPOCH,MEAN_MOTION,ECCENTRICITY,INCLINATION,RA_OF_ASC_NODE,ARG_OF_PERICENTER,MEAN_ANOMALY,EPHEMERIS_TYPE,CLASSIFICATION_TYPE,NORAD_CAT_ID,ELEMENT_SET_NO,REV_AT_EPOCH,BSTAR,MEAN_MOTION_DOT,MEAN_MOTION_DDOT
OSCAR 7 (AO-7),1974-089B,2026-07-23T06:43:13.078272,12.53698643,.00126097,101.9909,217.9030,63.4131,306.8461,0,U,7530,999,36504,.41374086E-4,-.4E-6,0
PHASE 3B (AO-10),1983-058B,2026-07-22T19:33:03.573216,2.05869117,.59989465,25.9436,213.6999,125.4549,306.1498,0,U,14129,999,29622,0,.116E-5,0
UOSAT 2 (UO-11),1984-021B,2026-07-22T06:10:17.951808,14.90861576,.00091187,97.8082,168.4468,71.8134,288.4076,0,U,14781,999,26235,.12392881E-3,.1166E-4,0
LUSAT (LO-19),1990-005G,2026-07-23T12:45:07.496064,14.34132489,.00126909,98.8846,227.3370,99.0495,261.2126,0,U,20442,999,90760,.47157672E-4,.85E-6,0
EYESAT A (AO-27),1993-061C,2026-07-23T03:36:32.406048,14.30950552,.00082933,98.6861,271.5473,3.0265,357.0967,0,U,22825,999,71214,.39246937E-4,.58E-6,0
ITAMSAT (IO-26),1993-061D,2026-07-23T14:36:03.078144,14.31378421,.00084359,98.6808,271.9263,344.3180,15.7740,0,U,22826,999,71252,.35795069E-4,.5E-6,0
RADIO ROSTO (RS15),1994-085A,2026-07-23T13:36:45.584064,11.27583677,.0157238,64.8138,244.3804,357.1707,2.8314,0,U,23439,999,30000,.46095234E-3,-.26E-6,0
JAS-2 (FO-29),1996-046B,2026-07-23T07:35:26.707776,13.53275816,.03499552,98.5215,48.2358,2.8840,357.4212,0,U,24278,999,47805,-.592077E-5,-.42E-6,0
TECHSAT 1B (GO-32),1998-043D,2026-07-23T10:48:15.492384,14.24434535,.00023345,99.0092,198.1273,101.8892,258.2548,0,U,25397,999,45649,.39519646E-4,.45E-6,0
ISS (ZARYA),1998-067A,2026-07-23T05:59:51.287424,15.49111598,.00069057,51.6313,121.6296,328.4486,31.6087,0,U,25544,999,57734,.18022249E-3,.9534E-4,0
PCSAT (NO-44),2001-043C,2026-07-23T13:10:00.076800,14.31967517,.00058432,67.0505,150.2240,267.3711,92.6722,0,U,26931,999,29565,.72289715E-4,.111E-5,0
SAUDISAT 1C (SO-50),2002-058C,2026-07-23T02:18:05.857632,14.83110516,.00742855,64.5523,17.8775,255.8289,103.4556,0,U,27607,999,26978,.12088401E-3,.878E-5,0
CUTE-1 (CO-55),2003-031E,2026-07-23T00:05:36.294720,14.24355144,.00108513,98.6747,212.1136,82.6312,277.6100,0,U,27844,999,19677,.1220184E-3,.238E-5,0
CUBESAT XI-IV (CO-57),2003-031J,2026-07-23T00:14:55.181760,14.23637690,.00107129,98.6778,211.8037,99.0689,261.1702,0,U,27848,999,19647,.10893948E-3,.205E-5,0
MOZHAETS 4 (RS22),2003-042A,2026-07-23T14:46:09.312384,14.73523572,.00118668,98.3486,30.0064,147.3434,302.8812,0,U,27939,999,22091,.91958847E-4,.544E-5,0
CUBESAT XI-V,2005-043F,2026-07-21T08:59:40.719840,14.72712744,.0015344,98.3024,358.7230,97.2573,263.0378,0,U,28895,999,10678,.15413557E-3,.932E-5,0
CUTE-1.7+APD II (CO-65),2008-021C,2026-07-23T12:08:25.630944,15.09754568,.00069809,97.8296,186.6930,264.2054,95.8378,0,U,32785,999,99067,.33682272E-3,.5372E-4,0
SEEDS II (CO-66),2008-021J,2026-07-23T10:03:53.123040,15.33884906,.00039208,97.7535,204.0816,140.5450,219.6077,0,U,32791,999,99284,.58049637E-3,.18972E-3,0
YUBILEINY (RS30),2008-025A,2026-07-23T13:19:15.186432,12.43180774,.00188436,82.5067,332.8178,229.8223,130.1208,0,U,32953,999,82421,-.37416308E-3,-.42E-6,0
KKS-1 (KISEKI),2009-002H,2026-07-23T13:15:25.630272,14.83204132,.00080989,98.1169,127.5703,161.9361,198.2141,0,U,33499,999,94158,.13911747E-3,.1081E-4,0
SWISSCUBE,2009-051B,2026-07-23T11:56:24.830304,14.62542294,.00081128,98.3998,113.0137,97.1181,263.0943,0,U,35932,999,89446,.17327399E-3,.83E-5,0
BEESAT-1,2009-051C,2026-07-23T10:58:49.054944,14.61771462,.00064728,98.3926,112.5322,108.5434,251.6470,0,U,35933,999,89448,.1463218E-3,.681E-5,0
ITUPSAT1,2009-051E,2026-07-23T06:35:32.837568,14.60487446,.00085148,98.4011,111.4996,120.7967,239.4072,0,U,35935,999,89400,.14081639E-3,.634E-5,0
XIWANG-1 (HOPE-1),2009-072B,2026-07-23T13:42:53.863200,13.16438329,.00077868,100.4040,157.8254,146.2980,213.8630,0,U,36122,999,79779,-.11808147E-2,-.495E-5,0
O/OREOS (USA 219),2010-062C,2026-07-23T10:11:59.527392,14.93874898,.00145546,71.9706,358.2425,349.2914,10.7944,0,U,37224,999,12205,.17393075E-3,.1789E-4,0
JUGNU,2011-058B,2026-07-23T00:32:28.762368,14.13785262,.00186531,19.9608,90.7073,112.3991,15.7019,0,U,37839,999,76410,.70105674E-4,.401E-5,0
SRMSAT,2011-058D,2026-07-23T08:04:34.923648,14.11582322,.00115608,19.9701,200.6646,241.2167,146.8753,0,U,37841,999,76293,.53261444E-4,.363E-5,0
STRAND-1,2013-009E,2026-07-23T01:12:19.700064,14.37182344,.00097296,98.3941,23.4053,120.1275,240.0877,0,U,39090,999,70221,.95167118E-4,.241E-5,0
ZACUBE-1 (TSHEPISOSAT),2013-066B,2026-07-23T07:58:43.857984,15.01362379,.00440736,97.7990,166.8439,129.2358,231.2791,0,U,39417,999,68615,.26444517E-3,.3415E-4,0
GOMX-1,2013-066Q,2026-07-23T14:44:26.820384,14.69556095,.01275186,97.6472,42.7787,321.0725,38.1351,0,U,39430,999,67526,.16023508E-3,.1024E-4,0
